[{"OBJECT_NAME":"VSP ROSE","OBJECT_ID":"2024-043AC","EPOCH":"2026-03-09T21:48:06.922944","MEAN_MOTION":15.27746075,"ECCENTRICITY":0.00099339,"INCLINATION":97.5443,"RA_OF_ASC_NODE":203.927,"ARG_OF_PERICENTER":232.2702,"MEAN_ANOMALY":127.7637,"EPHEMERIS_TYPE":0,"CLASSIFICATION_TYPE":"U","NORAD_CAT_ID":59124,"ELEMENT_SET_NO":999,"REV_AT_EPOCH":11182,"BSTAR":0.00025731354,"MEAN_MOTION_DOT":6.907e-5,"MEAN_MOTION_DDOT":0},{"OBJECT_NAME":"STARLINK-33976","OBJECT_ID":"2025-093Y","EPOCH":"2026-03-09T10:29:17.983680","MEAN_MOTION":15.27624713,"ECCENTRICITY":0.00041869,"INCLINATION":43.0078,"RA_OF_ASC_NODE":79.2845,"ARG_OF_PERICENTER":284.0658,"MEAN_ANOMALY":75.9728,"EPHEMERIS_TYPE":0,"CLASSIFICATION_TYPE":"U","NORAD_CAT_ID":63858,"ELEMENT_SET_NO":999,"REV_AT_EPOCH":4777,"BSTAR":0.0012395216,"MEAN_MOTION_DOT":0.00034057,"MEAN_MOTION_DDOT":0}]
